NOAA 15                 
1 25338U 98030A   24182.14170472  .00000423  00000+0  19299-3 0  9995
2 25338  98.5675 208.9977 0009088 289.0267  70.9929 14.26615167359286
NOAA 18                 
1 28654U 05018A   24182.16429543  .00000361  00000+0  21606-3 0  9997
2 28654  98.8743 259.0215 0014609  30.9910 329.2122 14.13241939985091
NOAA 19                 
1 33591U 09005A   24182.18831877  .00000331  00000+0  20157-3 0  9999
2 33591  99.0464 238.1247 0012822 254.0799 105.8960 14.13036946793468
METOP-B                 
1 38771U 12049A   24182.19524932  .00000282  00000+0  14884-3 0  9993
2 38771  98.6271 239.1263 0001486  86.5158 273.6189 14.21445524611397
SARAL                   
1 39086U 13009A   24181.93288654  .00000275  00000+0  11786-3 0  9999
2 39086  98.5511   6.8707 0000919 217.9273 142.1846 14.32435855592906
METOP-C                 
1 43689U 18087A   24182.16324973  .00000298  00000+0  15614-3 0  9994
2 43689  98.7227 241.2881 0002945  68.6416 291.5075 14.21481893292962
ANGELS                  
1 44876U 19092D   24181.79251162  .00010759  00000+0  40465-3 0  9992
2 44876  97.4750  10.3709 0008182 275.3206  84.7099 15.27294660251284
OTB-3-GAZELLE           
1 54023U 22127A   24181.95617976  .00000436  00000+0  14554-3 0  9998
2 54023  98.3428 175.9754 0013074 187.4160 172.6838 14.42122632 90966
EOS-6 (OCEANSAT-3)      
1 54361U 22158A   24182.22483630  .00000793  00000+0  23000-3 0  9998
2 54361  98.3534 279.0781 0001520 111.8660 248.2694 14.47018135 84155
